[
  {
    "name": "ONEWEB-0211",
    "noradId": "48767",
    "line1": "1 48767U 21045A   26156.10377275  .00000138  00000+0  32836-3 0  9992",
    "line2": "2 48767  87.9001 261.4910 0001556 120.1067 240.0218 13.16194818242856"
  },
  {
    "name": "ONEWEB-0223",
    "noradId": "48768",
    "line1": "1 48768U 21045B   26156.02407207  .00000041  00000+0  74466-4 0  9992",
    "line2": "2 48768  87.9010 261.6120 0001489 105.9794 254.1501 13.15544550242802"
  },
  {
    "name": "ONEWEB-0230",
    "noradId": "48769",
    "line1": "1 48769U 21045C   26155.69134161 -.00000032  00000+0 -11960-3 0  9992",
    "line2": "2 48769  87.9000 261.6933 0002046  95.2483 264.8881 13.15547587243027"
  },
  {
    "name": "ONEWEB-0237",
    "noradId": "48770",
    "line1": "1 48770U 21045D   26155.68024006  .00000063  00000+0  13326-3 0  9999",
    "line2": "2 48770  87.9000 261.6973 0001670  97.8645 262.2675 13.15550282242740"
  },
  {
    "name": "ONEWEB-0235",
    "noradId": "48771",
    "line1": "1 48771U 21045E   26156.03518698  .00000065  00000+0  13897-3 0  9990",
    "line2": "2 48771  87.9008 261.6113 0001506 101.6248 258.5052 13.15547782242788"
  },
  {
    "name": "ONEWEB-0242",
    "noradId": "48772",
    "line1": "1 48772U 21045F   26156.02885240  .00000027  00000+0  36767-4 0  9990",
    "line2": "2 48772  87.9009 261.6090 0001811  97.2484 262.8852 13.15548033242826"
  },
  {
    "name": "ONEWEB-0241",
    "noradId": "48773",
    "line1": "1 48773U 21045G   26156.01617730 -.00000097  00000+0 -29131-3 0  9992",
    "line2": "2 48773  87.8998 261.6310 0001625 109.2692 250.8614 13.15547530242730"
  },
  {
    "name": "ONEWEB-0243",
    "noradId": "48774",
    "line1": "1 48774U 21045H   26156.04786250  .00000153  00000+0  37332-3 0  9993",
    "line2": "2 48774  87.9001 261.6372 0001673  87.3313 272.8009 13.15548464242766"
  },
  {
    "name": "ONEWEB-0222",
    "noradId": "48775",
    "line1": "1 48775U 21045J   26156.03122360 -.00000038  00000+0 -13396-3 0  9997",
    "line2": "2 48775  87.9011 261.6061 0001748 105.8331 254.2992 13.15547390242809"
  },
  {
    "name": "ONEWEB-0244",
    "noradId": "48776",
    "line1": "1 48776U 21045K   26156.05736928  .00000233  00000+0  58424-3 0  9997",
    "line2": "2 48776  87.9015 261.5956 0001767 100.8761 259.2568 13.15547379243373"
  },
  {
    "name": "ONEWEB-0247",
    "noradId": "48777",
    "line1": "1 48777U 21045L   26156.05419220  .00005974  00000+0  15833-1 0  9993",
    "line2": "2 48777  87.8995 261.6306 0001209  94.2081 265.9187 13.15518208242810"
  },
  {
    "name": "ONEWEB-0245",
    "noradId": "48778",
    "line1": "1 48778U 21045M   26156.04945145  .00000123  00000+0  29345-3 0  9999",
    "line2": "2 48778  87.9012 261.6091 0001901 108.1812 251.9525 13.15548615242781"
  },
  {
    "name": "ONEWEB-0229",
    "noradId": "48779",
    "line1": "1 48779U 21045N   26156.04469205  .00000247  00000+0  62196-3 0  9996",
    "line2": "2 48779  87.9003 261.6084 0001811  97.6711 262.4625 13.15547747242811"
  },
  {
    "name": "ONEWEB-0228",
    "noradId": "48780",
    "line1": "1 48780U 21045P   26156.00203316 -.00000750  00000+0 -20253-2 0  9991",
    "line2": "2 48780  87.9019 261.6087 0001724 100.9406 259.1919 13.15555343242725"
  },
  {
    "name": "ONEWEB-0232",
    "noradId": "48781",
    "line1": "1 48781U 21045Q   26156.05261455  .00000130  00000+0  31206-3 0  9996",
    "line2": "2 48781  87.9012 261.6001 0001922 103.0317 257.1028 13.15549490243052"
  },
  {
    "name": "ONEWEB-0231",
    "noradId": "48782",
    "line1": "1 48782U 21045R   26156.03042588  .00000071  00000+0  15416-3 0  9998",
    "line2": "2 48782  87.9005 261.6185 0001678 102.7335 257.3983 13.15547826242740"
  },
  {
    "name": "ONEWEB-0234",
    "noradId": "48783",
    "line1": "1 48783U 21045S   26155.68803748 -.00000063  00000+0 -20074-3 0  9991",
    "line2": "2 48783  87.9005 261.6673 0002380 118.9468 241.1902 13.15548623242838"
  },
  {
    "name": "ONEWEB-0238",
    "noradId": "48784",
    "line1": "1 48784U 21045T   26155.68830586 -.00000048  00000+0 -16215-3 0  9997",
    "line2": "2 48784  87.9015 261.6616 0002255 114.9999 245.1366 13.15550275242736"
  },
  {
    "name": "ONEWEB-0240",
    "noradId": "48785",
    "line1": "1 48785U 21045U   26156.01377926 -.00000117  00000+0 -34434-3 0  9990",
    "line2": "2 48785  87.9012 261.6067 0001668 106.7077 253.4236 13.15549907242803"
  },
  {
    "name": "ONEWEB-0246",
    "noradId": "48786",
    "line1": "1 48786U 21045V   26156.00825186  .00000024  00000+0  28604-4 0  9994",
    "line2": "2 48786  87.9009 261.6128 0001852  98.6246 261.5094 13.15548604242670"
  },
  {
    "name": "ONEWEB-0210",
    "noradId": "48787",
    "line1": "1 48787U 21045W   26155.67866753  .00000074  00000+0  16183-3 0  9995",
    "line2": "2 48787  87.9011 261.6755 0001468  76.3218 283.8076 13.15549736242679"
  },
  {
    "name": "ONEWEB-0214",
    "noradId": "48788",
    "line1": "1 48788U 21045X   26155.68738008 -.00000059  00000+0 -18965-3 0  9993",
    "line2": "2 48788  87.9012 261.6702 0001982  89.8317 270.3041 13.15547415242645"
  },
  {
    "name": "ONEWEB-0221",
    "noradId": "48789",
    "line1": "1 48789U 21045Y   26155.23816278 -.00000029  00000+0 -11203-3 0  9996",
    "line2": "2 48789  87.9015 261.7684 0001940 112.0045 248.1292 13.15547831242676"
  },
  {
    "name": "ONEWEB-0213",
    "noradId": "48790",
    "line1": "1 48790U 21045Z   26155.68340534  .00000003  00000+0 -26255-4 0  9999",
    "line2": "2 48790  87.9011 261.6833 0001681 100.3507 259.7813 13.15549829242793"
  },
  {
    "name": "ONEWEB-0212",
    "noradId": "48791",
    "line1": "1 48791U 21045AA  26156.04073812  .00000178  00000+0  43778-3 0  9993",
    "line2": "2 48791  87.9008 261.6067 0001927 102.5104 257.6242 13.15548772242833"
  },
  {
    "name": "ONEWEB-0227",
    "noradId": "48792",
    "line1": "1 48792U 21045AB  26156.03994280  .00000249  00000+0  62729-3 0  9990",
    "line2": "2 48792  87.9010 261.6073 0001836 105.2091 254.9243 13.15548139242780"
  },
  {
    "name": "ONEWEB-0226",
    "noradId": "48793",
    "line1": "1 48793U 21045AC  26156.03360139  .00000100  00000+0  23106-3 0  9993",
    "line2": "2 48793  87.9011 261.6129 0001685  98.6542 261.4779 13.15549192242756"
  },
  {
    "name": "ONEWEB-0224",
    "noradId": "48794",
    "line1": "1 48794U 21045AD  26155.69291417 -.00000031  00000+0 -11537-3 0  9997",
    "line2": "2 48794  87.9001 261.7162 0001885 128.3210 231.8090 13.15550316242633"
  },
  {
    "name": "ONEWEB-0233",
    "noradId": "48795",
    "line1": "1 48795U 21045AE  26156.07782501 -.00000031  00000+0 -11703-3 0  9995",
    "line2": "2 48795  87.8992 261.6448 0001958 117.4279 242.7051 13.15547323242703"
  },
  {
    "name": "ONEWEB-0190",
    "noradId": "48796",
    "line1": "1 48796U 21045AF  26155.68498830  .00000010  00000+0 -67338-5 0  9994",
    "line2": "2 48796  87.9006 261.6877 0001302 100.3656 259.7621 13.15550372242721"
  }
]