OBJECT_NAME,OBJECT_ID,EPOCH,MEAN_MOTION,ECCENTRICITY,INCLINATION,RA_OF_ASC_NODE,ARG_OF_PERICENTER,MEAN_ANOMALY,EPHEMERIS_TYPE,CLASSIFICATION_TYPE,NORAD_CAT_ID,ELEMENT_SET_NO,REV_AT_EPOCH,BSTAR,MEAN_MOTION_DOT,MEAN_MOTION_DDOT
ONEWEB-0211,2021-045A,2026-06-05T02:29:25.965600,13.16194818,.0001556,87.9001,261.4910,120.1067,240.0218,0,U,48767,999,24285,.32836E-3,.138E-5,0
ONEWEB-0223,2021-045B,2026-06-05T00:34:39.826848,13.15544550,.0001489,87.9010,261.6120,105.9794,254.1501,0,U,48768,999,24280,.74466E-4,.41E-6,0
ONEWEB-0230,2021-045C,2026-06-04T16:35:31.915104,13.15547587,.0002046,87.9000,261.6933,95.2483,264.8881,0,U,48769,999,24302,-.1196E-3,-.32E-6,0
ONEWEB-0237,2021-045D,2026-06-04T16:19:32.741184,13.15550282,.000167,87.9000,261.6973,97.8645,262.2675,0,U,48770,999,24274,.13326E-3,.63E-6,0
ONEWEB-0235,2021-045E,2026-06-05T00:50:40.155072,13.15547782,.0001506,87.9008,261.6113,101.6248,258.5052,0,U,48771,999,24278,.13897E-3,.65E-6,0
ONEWEB-0242,2021-045F,2026-06-05T00:41:32.847360,13.15548033,.0001811,87.9009,261.6090,97.2484,262.8852,0,U,48772,999,24282,.36767E-4,.27E-6,0
ONEWEB-0241,2021-045G,2026-06-05T00:23:17.718720,13.15547530,.0001625,87.8998,261.6310,109.2692,250.8614,0,U,48773,999,24273,-.29131E-3,-.97E-6,0
ONEWEB-0243,2021-045H,2026-06-05T01:08:55.320000,13.15548464,.0001673,87.9001,261.6372,87.3313,272.8009,0,U,48774,999,24276,.37332E-3,.153E-5,0
ONEWEB-0222,2021-045J,2026-06-05T00:44:57.719040,13.15547390,.0001748,87.9011,261.6061,105.8331,254.2992,0,U,48775,999,24280,-.13396E-3,-.38E-6,0
ONEWEB-0244,2021-045K,2026-06-05T01:22:36.705792,13.15547379,.0001767,87.9015,261.5956,100.8761,259.2568,0,U,48776,999,24337,.58424E-3,.233E-5,0
ONEWEB-0247,2021-045L,2026-06-05T01:18:02.206080,13.15518208,.0001209,87.8995,261.6306,94.2081,265.9187,0,U,48777,999,24281,.15833E-1,.5974E-4,0
ONEWEB-0245,2021-045M,2026-06-05T01:11:12.605280,13.15548615,.0001901,87.9012,261.6091,108.1812,251.9525,0,U,48778,999,24278,.29345E-3,.123E-5,0
ONEWEB-0229,2021-045N,2026-06-05T01:04:21.393120,13.15547747,.0001811,87.9003,261.6084,97.6711,262.4625,0,U,48779,999,24281,.62196E-3,.247E-5,0
ONEWEB-0228,2021-045P,2026-06-05T00:02:55.665024,13.15555343,.0001724,87.9019,261.6087,100.9406,259.1919,0,U,48780,999,24272,-.20253E-2,-.75E-5,0
ONEWEB-0232,2021-045Q,2026-06-05T01:15:45.897120,13.15549490,.0001922,87.9012,261.6001,103.0317,257.1028,0,U,48781,999,24305,.31206E-3,.13E-5,0
ONEWEB-0231,2021-045R,2026-06-05T00:43:48.796032,13.15547826,.0001678,87.9005,261.6185,102.7335,257.3983,0,U,48782,999,24274,.15416E-3,.71E-6,0
ONEWEB-0234,2021-045S,2026-06-04T16:30:46.438272,13.15548623,.000238,87.9005,261.6673,118.9468,241.1902,0,U,48783,999,24283,-.20074E-3,-.63E-6,0
ONEWEB-0238,2021-045T,2026-06-04T16:31:09.626304,13.15550275,.0002255,87.9015,261.6616,114.9999,245.1366,0,U,48784,999,24273,-.16215E-3,-.48E-6,0
ONEWEB-0240,2021-045U,2026-06-05T00:19:50.528064,13.15549907,.0001668,87.9012,261.6067,106.7077,253.4236,0,U,48785,999,24280,-.34434E-3,-.117E-5,0
ONEWEB-0246,2021-045V,2026-06-05T00:11:52.960704,13.15548604,.0001852,87.9009,261.6128,98.6246,261.5094,0,U,48786,999,24267,.28604E-4,.24E-6,0
ONEWEB-0210,2021-045W,2026-06-04T16:17:16.874592,13.15549736,.0001468,87.9011,261.6755,76.3218,283.8076,0,U,48787,999,24267,.16183E-3,.74E-6,0
ONEWEB-0214,2021-045X,2026-06-04T16:29:49.638912,13.15547415,.0001982,87.9012,261.6702,89.8317,270.3041,0,U,48788,999,24264,-.18965E-3,-.59E-6,0
ONEWEB-0221,2021-045Y,2026-06-04T05:42:57.264192,13.15547831,.00019405,87.9015,261.7684,112.0045,248.1292,0,U,48789,999,24267,-.11202608E-3,-.29E-6,0
ONEWEB-0213,2021-045Z,2026-06-04T16:24:06.221376,13.15549829,.0001681,87.9011,261.6833,100.3507,259.7813,0,U,48790,999,24279,-.26255E-4,.3E-7,0
ONEWEB-0212,2021-045AA,2026-06-05T00:58:39.773568,13.15548772,.0001927,87.9008,261.6067,102.5104,257.6242,0,U,48791,999,24283,.43778E-3,.178E-5,0
ONEWEB-0227,2021-045AB,2026-06-05T00:57:31.057920,13.15548139,.0001836,87.9010,261.6073,105.2091,254.9243,0,U,48792,999,24278,.62729E-3,.249E-5,0
ONEWEB-0226,2021-045AC,2026-06-05T00:48:23.160096,13.15549192,.0001685,87.9011,261.6129,98.6542,261.4779,0,U,48793,999,24275,.23106E-3,.1E-5,0
ONEWEB-0224,2021-045AD,2026-06-04T16:37:47.784288,13.15550316,.0001885,87.9001,261.7162,128.3210,231.8090,0,U,48794,999,24263,-.11537E-3,-.31E-6,0
ONEWEB-0233,2021-045AE,2026-06-05T01:52:04.080864,13.15547323,.0001958,87.8992,261.6448,117.4279,242.7051,0,U,48795,999,24270,-.11703E-3,-.31E-6,0
ONEWEB-0190,2021-045AF,2026-06-04T16:26:22.989120,13.15550372,.0001302,87.9006,261.6877,100.3656,259.7621,0,U,48796,999,24272,-.67338E-5,.1E-6,0
